{
  "type": "FeatureCollection",
  "features": [
    {
      "type": "Feature",
      "properties": {
        "norad_id": 66991,
        "name": "CZ-3B R/B",
        "group": "last-30-days",
        "lat": 9.11550774612786,
        "lon": -40.57320715218149,
        "alt_km": 29153.648737849948,
        "timestamp": "2025-12-11T05:00:25.077860+00:00",
        "meta_object_name": "CZ-3B R/B",
        "meta_object_id": "2025-290B",
        "meta_epoch": "2025-12-10T06:44:55.577184",
        "meta_mean_motion": 2.37676924,
        "meta_eccentricity": 0.72420555,
        "meta_inclination": 28.4645,
        "meta_ra_of_asc_node": 302.5976,
        "meta_arg_of_pericenter": 179.3847,
        "meta_mean_anomaly": 182.8677,
        "meta_ephemeris_type": 0,
        "meta_classification_type": "U",
        "meta_norad_cat_id": 66991,
        "meta_element_set_no": 999,
        "meta_rev_at_epoch": 3,
        "meta_bstar": 0.00043781284,
        "meta_mean_motion_dot": 0.00018897,
        "meta_mean_motion_ddot": 4.56211e-07,
        "tle_line1": "1 66991U 25290B   25344.28119881  .00018897  45621-6  43781-3 0  9998",
        "tle_line2": "2 66991  28.4645 302.5976 7242055 179.3847 182.8677  2.37676924    36"
      },
      "geometry": {
        "type": "Point",
        "coordinates": [
          -40.57320715218149,
          9.11550774612786
        ]
      }
    }
  ]
}